[{"OBJECT_NAME":"SAUDISAT 5B","OBJECT_ID":"2018-102C","EPOCH":"2026-03-09T22:59:17.457216","MEAN_MOTION":15.27248504,"ECCENTRICITY":0.00120577,"INCLINATION":97.3281,"RA_OF_ASC_NODE":135.3629,"ARG_OF_PERICENTER":124.0958,"MEAN_ANOMALY":236.1427,"EPHEMERIS_TYPE":0,"CLASSIFICATION_TYPE":"U","NORAD_CAT_ID":43833,"ELEMENT_SET_NO":999,"REV_AT_EPOCH":40064,"BSTAR":0.00024926623,"MEAN_MOTION_DOT":6.596e-5,"MEAN_MOTION_DDOT":0},{"OBJECT_NAME":"STARLINK-35591","OBJECT_ID":"2025-288AB","EPOCH":"2026-03-08T21:38:15.334368","MEAN_MOTION":15.27584601,"ECCENTRICITY":0.00015964,"INCLINATION":43.0012,"RA_OF_ASC_NODE":28.1737,"ARG_OF_PERICENTER":246.0772,"MEAN_ANOMALY":113.9913,"EPHEMERIS_TYPE":0,"CLASSIFICATION_TYPE":"U","NORAD_CAT_ID":66984,"ELEMENT_SET_NO":999,"REV_AT_EPOCH":1516,"BSTAR":0.0012807805,"MEAN_MOTION_DOT":0.00035155,"MEAN_MOTION_DDOT":0}]
